#dP2021  3 22  0  0  0.00000000      97 __u+U IGS14 FIT  IAC
## 2150  86400.00000000   900.00000000 59295 0.0000000000000
+  123   C02C03C04C05C06C07C08C09C10C11C12C13C14C16C19C20C21
+        C22C23C24C25C26C27C28C29C30C32C33C34C35C36C37C38C39
+        C40C41C42C43C44C45C46C60E01E02E03E04E05E07E08E09E11
+        E12E13E14E15E18E19E21E24E25E26E27E30E31E33E36G01G02
+        G03G04G05G06G07G08G09G10G11G12G13G14G15G16G17G18G19
+        G20G21G22G23G24G25G26G27G28G29G30G31G32J01J02J03J07
+        R01R02R03R04R05R07R08R09R11R12R13R14R15R16R17R18R19
+        R20R21R22R24  0  0  0  0  0  0  0  0  0  0  0  0  0
++         0  0  0  0  0  0  0  0  0  0  0  0  0  0  0  0  0
++         0  0  0  0  0  0  0  0  0  0  0  0  0  0  0  0  0
++         0  0  0  0  0  0  0  0  0  0  0  0  0  0  0  0  0
++         0  0  0  0  0  0  0  0  0  0  0  0  0  0  0  0  0
++         0  0  0  0  0  0  0  0  0  0  0  0  0  0  0  0  0
++         0  0  0  0  0  0  0  0  0  0  0  0  0  0  0  0  0
++         0  0  0  0  0  0  0  0  0  0  0  0  0  0  0  0  0
++         0  0  0  0  0  0  0  0  0  0  0  0  0  0  0  0  0
%c M  cc GPS ccc cccc cccc cccc cccc ccccc ccccc ccccc ccccc
%c cc cc ccc ccc cccc cccc cccc cccc ccccc ccccc ccccc ccccc
%f  1.2500000  1.025000000  0.00000000000  0.000000000000000
%f  0.0000000  0.000000000  0.00000000000  0.000000000000000
%i    0    0    0    0      0      0      0      0         0
%i    0    0    0    0      0      0      0      0         0
/* INFORMATION & ANALYSIS CENTER (IAC)            FINAL DATA
/* S/V CLOCKS ARE ALIGNED TO GNSS TIME                      
/* G:C1WC2W R:C1PC2P E:C1XC5X C:C2IC6I J:C1CC2S             
/* PCV:IGS14_2134 OL/AL:FES2004  NONE     YN ORB:CoN CLK:CoN
*  2021 03 22  8 45  0.00000000
PC02   4372.728454  41891.848079   -992.751110 999999.999999
PC03 -14727.628637  39468.085728    -67.872704   -468.464986
PC04 -39605.529218  14478.529602    583.079612   -176.809500
PC05  21850.171328  36009.179705   -827.897465     35.396549
PC06  -7573.873619  26106.122521 -31646.064426    201.131851
PC07 -23180.437335  26350.709801  23252.328242    -42.197276
PC08 -16846.383483  38077.110325   7885.251284   -898.152168
PC09   5724.619759  34145.308472 -23470.274304    650.968556
PC10  -8056.201751  28077.410418  30482.284854    -67.976274
PC11  -1725.512689 -22480.054234 -16359.258393   -854.419829
PC12  12547.580195  -8773.924987 -23294.525257    883.638344
PC13  -7843.175236  41071.517588  -6226.588561    190.309352
PC14   6773.007430 -15854.639267  21983.646698    272.414747
PC16  -3172.101903  28620.825549 -30601.553000   -745.984776
PC19   4763.931603  15415.393269 -22739.963336    770.624817
PC20 -15475.734992  14006.190283 -18487.736182   -934.978265
PC21  27456.797209  -4105.694921   2971.875939   -898.300372
PC22  22851.949445   7967.315856 -13912.262760   -927.513786
PC23 -12592.360008 -10768.450029 -22456.173972   -879.390399
PC24  14625.188837 -23441.720405   3799.672600   -789.919449
PC25    339.168524 -24222.323279 -13842.294927   -944.613799
PC26  18801.779865 -10177.226737  17906.373129    931.925764
PC27 -18058.530847   -838.170248  21247.639210    502.713209
PC28 -19195.792157 -18229.572865   8831.816563    -95.490342
PC29  10011.834961  24536.693847   8726.524445    368.340092
PC30  -6144.127072  16870.769126  21352.285058    454.294950
PC32 -27415.465303   4273.761314  -2912.177246   -918.532090
PC33  -4720.619278 -15456.976526  22758.594991   -945.172838
PC34   5605.578960 -17444.193894 -21063.585740   -713.404602
PC35  19750.083988  17740.727096  -8538.553524   -363.164669
PC36  -1179.922141  24359.592114  13584.260115   -738.953499
PC37 -18996.049294   8915.312218 -18394.287700   -880.617128
PC38 -14800.908976  39306.437337   4382.950370    137.373769
PC39   -649.408166  29111.383545 -30439.594216     29.602061
PC40 -13621.346024  23113.166384  32500.332314    143.427340
PC41 -22651.519749  -8132.401717  14182.232504   -934.301131
PC42  16153.574393 -13870.555238  18094.448644   -937.302316
PC43  -9492.811144 -24619.234609  -9133.367935   -650.680461
PC44  18235.887714    307.904934 -21116.550999     98.452200
PC45  12542.740381  10631.104622  22548.081053    393.305354
PC46 -14114.465132  23915.116706  -2956.298568    351.611014
PC60   7315.366373  41485.406563   1562.167199      0.044722
PE01  14732.368862   9125.940029  23990.784806  -1070.749067
PE02 -14854.477414  -9017.656990 -23971.796193    206.752540
PE03 -24136.437346 -15603.985651   7054.315645   -411.622628
PE04  27260.801218   2934.569700  11162.065723   -734.077759
PE05  -6796.433185 -19298.918652  21393.841702   -295.044486
PE07 -14319.088139  11699.922147 -23103.938015   -515.901821
PE08 -27156.961674  -2623.682096 -11462.253503   6029.424607
PE09  14073.590823 -11740.121035  23252.608207   5726.572689
PE11   9239.376741 -21354.626706 -18313.067255   6179.394862
PE12  16291.246298   -166.888359 -24706.634618   5298.001520
PE13  -9353.074457  20999.481421  18648.455100    413.909422
PE14  -8896.841337  12057.734201  18201.109682  -1370.345888
PE15 -16222.454953    209.398026  24768.859243    823.400748
PE18  15229.788865 -14082.841146 -24920.432206  -1498.645614
PE19  22783.862464  16541.484898  -9123.175059    233.015750
PE21  -3704.703800  20529.380159  20996.157159   -654.998457
PE24  21129.336231 -20085.816537  -5060.470007   -805.961626
PE25   3877.313257 -20586.369600 -20909.218174   -529.059901
PE26   3334.290710  29398.454448    816.845769   2013.466972
PE27 -20649.170179  20433.327393   5714.543538      5.196695
PE30 -25265.471870   7483.651727 -13516.558132   3087.069998
PE31  25341.453612  -8321.670764  12829.883552   -479.409189
PE33  13528.247255  20660.983348 -16298.256245   -466.770545
PE36  -3033.046836 -29412.420906  -1528.464374   -183.289503
PG01 -13260.940357  13806.866736  18007.971217    735.428258
PG02  13352.271296  11382.715438 -19272.143530   -588.494832
PG03 -22820.429188  13146.454344  -3027.374159   -115.002348
PG04 -16908.860526   4813.395049 -19920.504752   -187.623611
PG05  23100.521638  -1368.858425 -13354.022758    -36.906304
PG06   6518.267385  22464.381885 -12464.232202      2.201916
PG07  -6970.074802  24354.688083  -6738.108151     97.922574
PG08 -21795.631406  -1861.369414  15271.851735    -14.664003
PG09  -6649.841045  14005.175789 -21620.879245   -333.075208
PG10  -1267.415181 -15737.066391  21432.510047    -86.138112
PG11 -13656.029657   8578.391715  20686.332501      8.049179
PG12  24660.177828  -9636.582431     -6.508677    -17.390427
PG13  22124.646592  11819.080153   8792.011511    110.741786
PG14   -798.591729  16313.916753  20930.296342     99.602515
PG15  22028.469119   -721.109626  14708.646724   -161.448918
PG16 -21858.958555  -3043.789109 -15352.291669   -297.801174
PG17   9623.095055  20101.993715  14874.945996    413.773602
PG18   5188.285400 -25752.808282  -3701.657567    350.990948
PG19  16277.737435  19856.510794   6709.286796    -23.094214
PG20  13148.288288 -19430.389583  12100.929633    523.958537
PG21 -15340.195971   5250.432625  21697.553304    105.085117
PG22 -24135.049710   8605.356506   6819.063458   -655.138310
PG23  10567.612544 -18071.402985  16300.791102    116.818459
PG24  14888.918484  -8223.175191  20066.155692      0.744376
PG25  16521.154344 -17056.959907 -11869.144490    103.677055
PG26 -14351.369718  -9238.180108 -20466.883487     61.531521
PG27 -23339.704107 -12087.269135   4855.738066    -98.613051
PG28   1486.866305  15473.418821  22113.642177    598.462971
PG29   6765.344993 -13305.755107 -22009.763032   -316.314293
PG30   1243.342948  25858.626883   5417.699437   -401.988192
PG31  -8315.394449 -20291.757054 -14730.828136   -107.054783
PG32 -12333.058452 -19621.280148  13229.919820     21.558771
PJ01 -31753.037633  15813.309820 -18223.208180   -357.297623
PJ02 -29154.811270  30501.725661   3750.652396      3.836365
PJ03 -25759.562497  22809.451403  29438.543279     -2.100306
PJ07 -25400.273825  33653.751237    -47.704875     -0.004312
PR01  25328.228883    927.812414   2956.291000     76.746580
PR02  13238.302432  -8059.296191  20284.841846    471.752337
PR03  -5731.856167 -11281.908409  22201.949576     32.827270
PR04 -21229.832436  -7982.225513  11708.196627     78.977765
PR05 -24942.837727   -413.998494  -5365.228629     68.585907
PR07   6352.851092  11237.267167 -21952.244125    -42.558266
PR08  21283.519733   7957.844432 -11513.938196    -58.080446
PR09 -14812.613923  20721.659112    198.112361    -15.903197
PR11   8562.886781   6737.502998  23070.015769      2.028324
PR12  16914.530979  -9939.705933  16308.244418    214.582392
PR13  15003.360480 -20623.655379    370.841575    -52.328356
PR14   4201.493200 -19114.545837 -16360.505770     62.285378
PR15  -8826.070161  -6557.021929 -23002.593748    104.786325
PR16 -16997.099755  11149.640893 -15523.657720    -12.825447
PR17  -6913.091868 -23634.563211  -6586.292092    410.043168
PR18 -13207.762630 -19270.747811  10328.484927     70.625274
PR19 -12516.316452  -5707.671086  21483.571453   -136.694766
PR20  -4216.937803  14328.365760  20672.041635    -45.769983
PR21   7474.851744  23784.415487   5443.405503   -196.203013
PR22  13248.024959  18538.500394 -11371.175722   -103.868305
PR24   3946.479521 -15181.204373 -20094.870211     35.933559
EOF
